{
    "links": {
        "self": "http://www.neowsapp.com/rest/v1/neo/3274166?api_key=iIulBulltgU6a56xZRHN4H3l9WmuAYTsLGpBGhQ2"
    },
    "id": "3274166",
    "neo_reference_id": "3274166",
    "name": "(2005 EL169)",
    "designation": "2005 EL169",
    "nasa_jpl_url": "http://ssd.jpl.nasa.gov/sbdb.cgi?sstr=3274166",
    "absolute_magnitude_h": 21.9,
    "estimated_diameter": {
        "kilometers": {
            "estimated_diameter_min": 0.1108038821,
            "estimated_diameter_max": 0.2477650126
        },
        "meters": {
            "estimated_diameter_min": 110.8038821264,
            "estimated_diameter_max": 247.7650126055
        },
        "miles": {
            "estimated_diameter_min": 0.068850319,
            "estimated_diameter_max": 0.1539539936
        },
        "feet": {
            "estimated_diameter_min": 363.5298086356,
            "estimated_diameter_max": 812.8773639568
        }
    },
    "is_potentially_hazardous_asteroid": false,
    "close_approach_data": [
        {
            "close_approach_date": "2005-03-20",
            "close_approach_date_full": "2005-Mar-20 10:10",
            "epoch_date_close_approach": 1111313400000,
            "relative_velocity": {
                "kilometers_per_second": "6.1403260976",
                "kilometers_per_hour": "22105.1739512984",
                "miles_per_hour": "13735.2954476832"
            },
            "miss_distance": {
                "astronomical": "0.2238296184",
                "lunar": "87.0697215576",
                "kilometers": "33484434.155552808",
                "miles": "20806262.5850444304"
            },
            "orbiting_body": "Earth"
        }
    ],
    "orbital_data": {
        "orbit_id": "13",
        "orbit_determination_date": "2017-04-06 09:11:16",
        "first_observation_date": "2005-03-11",
        "last_observation_date": "2005-04-17",
        "data_arc_in_days": 37,
        "observations_used": 43,
        "orbit_uncertainty": "6",
        "minimum_orbit_intersection": ".209795",
        "jupiter_tisserand_invariant": "4.623",
        "epoch_osculation": "2459000.5",
        "eccentricity": ".1664157535374746",
        "semi_major_axis": "1.442694101382115",
        "inclination": "11.83853413673609",
        "ascending_node_longitude": "353.2334926594137",
        "orbital_period": "632.9360189251456",
        "perihelion_distance": "1.202607075376541",
        "perihelion_argument": "172.1178605870378",
        "aphelion_distance": "1.68278112738769",
        "perihelion_time": "2459124.885634498774",
        "mean_anomaly": "289.2522038868919",
        "mean_motion": ".5687778689090145",
        "equinox": "J2000",
        "orbit_class": {
            "orbit_class_type": "AMO",
            "orbit_class_description": "Near-Earth asteroid orbits similar to that of 1221 Amor",
            "orbit_class_range": "1.017 AU < q (perihelion) < 1.3 AU"
        }
    },
    "is_sentry_object": false
}